{"fetched_at":"2026-07-23T07:05:20.500Z","source":"https://celestrak.org/NORAD/elements/gp.php?GROUP=planet&FORMAT=JSON","constellation":"superdove","records":[{"OBJECT_NAME":"FLOCK 4Q-16","OBJECT_ID":"2023-174R","EPOCH":"2026-07-22T13:06:58.120128","CLASSIFICATION_TYPE":"U","MEAN_MOTION":15.50613331,"ECCENTRICITY":0.00064367,"INCLINATION":97.3809,"RA_OF_ASC_NODE":292.5089,"ARG_OF_PERICENTER":54.9524,"MEAN_ANOMALY":305.2331,"EPHEMERIS_TYPE":0,"NORAD_CAT_ID":58271,"ELEMENT_SET_NO":999,"REV_AT_EPOCH":15105,"BSTAR":0.0004397316,"MEAN_MOTION_DOT":0.00025149,"MEAN_MOTION_DDOT":0},{"OBJECT_NAME":"FLOCK 4Q-11","OBJECT_ID":"2023-174T","EPOCH":"2026-07-22T21:42:03.013920","CLASSIFICATION_TYPE":"U","MEAN_MOTION":15.51137642,"ECCENTRICITY":0.00057751,"INCLINATION":97.3845,"RA_OF_ASC_NODE":293.5213,"ARG_OF_PERICENTER":47.5543,"MEAN_ANOMALY":312.6197,"EPHEMERIS_TYPE":0,"NORAD_CAT_ID":58273,"ELEMENT_SET_NO":999,"REV_AT_EPOCH":15112,"BSTAR":0.00044572029,"MEAN_MOTION_DOT":0.0002597,"MEAN_MOTION_DDOT":0},{"OBJECT_NAME":"FLOCK 4Q-28","OBJECT_ID":"2023-174AA","EPOCH":"2026-07-22T05:17:57.906240","CLASSIFICATION_TYPE":"U","MEAN_MOTION":15.57072229,"ECCENTRICITY":0.00041826,"INCLINATION":97.3871,"RA_OF_ASC_NODE":295.6222,"ARG_OF_PERICENTER":41.0014,"MEAN_ANOMALY":319.1555,"EPHEMERIS_TYPE":0,"NORAD_CAT_ID":58280,"ELEMENT_SET_NO":999,"REV_AT_EPOCH":15119,"BSTAR":0.00048880008,"MEAN_MOTION_DOT":0.00035376,"MEAN_MOTION_DDOT":0},{"OBJECT_NAME":"FLOCK 4Q-27","OBJECT_ID":"2023-174AC","EPOCH":"2026-07-22T05:19:13.044000","CLASSIFICATION_TYPE":"U","MEAN_MOTION":15.57284095,"ECCENTRICITY":0.000336,"INCLINATION":97.38,"RA_OF_ASC_NODE":295.0248,"ARG_OF_PERICENTER":46.1334,"MEAN_ANOMALY":314.0198,"EPHEMERIS_TYPE":0,"NORAD_CAT_ID":58282,"ELEMENT_SET_NO":999,"REV_AT_EPOCH":15120,"BSTAR":0.00047114481,"MEAN_MOTION_DOT":0.00034355,"MEAN_MOTION_DDOT":0},{"OBJECT_NAME":"FLOCK 4Q-7","OBJECT_ID":"2023-174BQ","EPOCH":"2026-07-22T16:30:13.228704","CLASSIFICATION_TYPE":"U","MEAN_MOTION":15.57746254,"ECCENTRICITY":0.00040379,"INCLINATION":97.39,"RA_OF_ASC_NODE":296.4414,"ARG_OF_PERICENTER":11.8986,"MEAN_ANOMALY":348.2365,"EPHEMERIS_TYPE":0,"NORAD_CAT_ID":58318,"ELEMENT_SET_NO":999,"REV_AT_EPOCH":15127,"BSTAR":0.00047238755,"MEAN_MOTION_DOT":0.00035052,"MEAN_MOTION_DDOT":0},{"OBJECT_NAME":"FLOCK 4Q-2","OBJECT_ID":"2023-174BS","EPOCH":"2026-07-22T22:53:22.435296","CLASSIFICATION_TYPE":"U","MEAN_MOTION":15.51113736,"ECCENTRICITY":0.00040092,"INCLINATION":97.3838,"RA_OF_ASC_NODE":293.2822,"ARG_OF_PERICENTER":24.2012,"MEAN_ANOMALY":335.9427,"EPHEMERIS_TYPE":0,"NORAD_CAT_ID":58320,"ELEMENT_SET_NO":999,"REV_AT_EPOCH":15114,"BSTAR":0.00048898128,"MEAN_MOTION_DOT":0.00028475,"MEAN_MOTION_DDOT":0},{"OBJECT_NAME":"FLOCK 4Q-9","OBJECT_ID":"2023-174BU","EPOCH":"2026-07-22T21:40:42.409632","CLASSIFICATION_TYPE":"U","MEAN_MOTION":15.51670604,"ECCENTRICITY":0.00048675,"INCLINATION":97.3844,"RA_OF_ASC_NODE":293.3497,"ARG_OF_PERICENTER":22.791,"MEAN_ANOMALY":337.3557,"EPHEMERIS_TYPE":0,"NORAD_CAT_ID":58322,"ELEMENT_SET_NO":999,"REV_AT_EPOCH":15112,"BSTAR":0.00054197139,"MEAN_MOTION_DOT":0.00032223,"MEAN_MOTION_DDOT":0},{"OBJECT_NAME":"FLOCK 4Q-4","OBJECT_ID":"2023-174BZ","EPOCH":"2026-07-22T05:09:31.078656","CLASSIFICATION_TYPE":"U","MEAN_MOTION":15.50096855,"ECCENTRICITY":0.00051888,"INCLINATION":97.382,"RA_OF_ASC_NODE":291.7391,"ARG_OF_PERICENTER":54.7759,"MEAN_ANOMALY":305.3978,"EPHEMERIS_TYPE":0,"NORAD_CAT_ID":58327,"ELEMENT_SET_NO":999,"REV_AT_EPOCH":15098,"BSTAR":0.00047091827,"MEAN_MOTION_DOT":0.00026449,"MEAN_MOTION_DDOT":0},{"OBJECT_NAME":"FLOCK 4Q-13","OBJECT_ID":"2023-174CA","EPOCH":"2026-07-22T21:28:51.513888","CLASSIFICATION_TYPE":"U","MEAN_MOTION":15.53153575,"ECCENTRICITY":0.00051597,"INCLINATION":97.3997,"RA_OF_ASC_NODE":295.7946,"ARG_OF_PERICENTER":30.7958,"MEAN_ANOMALY":329.3597,"EPHEMERIS_TYPE":0,"NORAD_CAT_ID":58328,"ELEMENT_SET_NO":999,"REV_AT_EPOCH":15121,"BSTAR":0.00039941768,"MEAN_MOTION_DOT":0.00024998,"MEAN_MOTION_DDOT":0},{"OBJECT_NAME":"FLOCK 4BE-18","OBJECT_ID":"2024-149N","EPOCH":"2026-07-22T12:04:28.106112","CLASSIFICATION_TYPE":"U","MEAN_MOTION":15.42891594,"ECCENTRICITY":0.00054396,"INCLINATION":97.3716,"RA_OF_ASC_NODE":287.6274,"ARG_OF_PERICENTER":125.4335,"MEAN_ANOMALY":234.7421,"EPHEMERIS_TYPE":0,"NORAD_CAT_ID":60480,"ELEMENT_SET_NO":999,"REV_AT_EPOCH":10775,"BSTAR":0.00042761395,"MEAN_MOTION_DOT":0.0001872,"MEAN_MOTION_DDOT":0},{"OBJECT_NAME":"FLOCK 4BE-7","OBJECT_ID":"2024-149P","EPOCH":"2026-07-22T11:27:05.391936","CLASSIFICATION_TYPE":"U","MEAN_MOTION":15.41714937,"ECCENTRICITY":0.00044905,"INCLINATION":97.3743,"RA_OF_ASC_NODE":286.8807,"ARG_OF_PERICENTER":130.5541,"MEAN_ANOMALY":229.6098,"EPHEMERIS_TYPE":0,"NORAD_CAT_ID":60481,"ELEMENT_SET_NO":999,"REV_AT_EPOCH":10768,"BSTAR":0.00065443033,"MEAN_MOTION_DOT":0.00027617,"MEAN_MOTION_DDOT":0},{"OBJECT_NAME":"FLOCK 4BE-36","OBJECT_ID":"2024-149U","EPOCH":"2026-07-22T04:42:47.928384","CLASSIFICATION_TYPE":"U","MEAN_MOTION":15.43708231,"ECCENTRICITY":0.0005164,"INCLINATION":97.3731,"RA_OF_ASC_NODE":288.0675,"ARG_OF_PERICENTER":133.4141,"MEAN_ANOMALY":226.7538,"EPHEMERIS_TYPE":0,"NORAD_CAT_ID":60486,"ELEMENT_SET_NO":999,"REV_AT_EPOCH":10775,"BSTAR":0.00042403104,"MEAN_MOTION_DOT":0.00019079,"MEAN_MOTION_DDOT":0},{"OBJECT_NAME":"FLOCK 4BE-25","OBJECT_ID":"2024-149V","EPOCH":"2026-07-22T04:36:28.640160","CLASSIFICATION_TYPE":"U","MEAN_MOTION":15.39679253,"ECCENTRICITY":0.00040696,"INCLINATION":97.3783,"RA_OF_ASC_NODE":286.5994,"ARG_OF_PERICENTER":127.8082,"MEAN_ANOMALY":232.3533,"EPHEMERIS_TYPE":0,"NORAD_CAT_ID":60487,"ELEMENT_SET_NO":999,"REV_AT_EPOCH":10762,"BSTAR":0.00039379486,"MEAN_MOTION_DOT":0.0001548,"MEAN_MOTION_DDOT":0},{"OBJECT_NAME":"FLOCK 4BE-31","OBJECT_ID":"2024-149W","EPOCH":"2026-07-22T20:10:04.280448","CLASSIFICATION_TYPE":"U","MEAN_MOTION":15.45389199,"ECCENTRICITY":0.00040581,"INCLINATION":97.3787,"RA_OF_ASC_NODE":289.6875,"ARG_OF_PERICENTER":131.3977,"MEAN_ANOMALY":228.7621,"EPHEMERIS_TYPE":0,"NORAD_CAT_ID":60488,"ELEMENT_SET_NO":999,"REV_AT_EPOCH":10788,"BSTAR":0.00051606588,"MEAN_MOTION_DOT":0.00024616,"MEAN_MOTION_DDOT":0},{"OBJECT_NAME":"FLOCK 4BE-20","OBJECT_ID":"2024-149X","EPOCH":"2026-07-22T04:08:21.388992","CLASSIFICATION_TYPE":"U","MEAN_MOTION":15.38936499,"ECCENTRICITY":0.00054565,"INCLINATION":97.3682,"RA_OF_ASC_NODE":285.3707,"ARG_OF_PERICENTER":134.1319,"MEAN_ANOMALY":226.0376,"EPHEMERIS_TYPE":0,"NORAD_CAT_ID":60489,"ELEMENT_SET_NO":999,"REV_AT_EPOCH":10759,"BSTAR":0.00035993353,"MEAN_MOTION_DOT":0.00013801,"MEAN_MOTION_DDOT":0},{"OBJECT_NAME":"FLOCK 4BE-23","OBJECT_ID":"2024-149Y","EPOCH":"2026-07-22T04:08:13.269120","CLASSIFICATION_TYPE":"U","MEAN_MOTION":15.38494329,"ECCENTRICITY":0.00051001,"INCLINATION":97.3764,"RA_OF_ASC_NODE":285.7643,"ARG_OF_PERICENTER":138.0155,"MEAN_ANOMALY":222.1482,"EPHEMERIS_TYPE":0,"NORAD_CAT_ID":60490,"ELEMENT_SET_NO":999,"REV_AT_EPOCH":10757,"BSTAR":0.00037871825,"MEAN_MOTION_DOT":0.00014318,"MEAN_MOTION_DDOT":0}]}
