{"epoch":1784799577,"count":18318,"objects":[{"id":"58271","name":"FLOCK 4Q 16","type":"PAYLOAD","l1":"1 58271U 23174R   26203.54650602  .00025149  00000-0  43973-3 0  9991","l2":"2 58271  97.3809 292.5089 0006437  54.9524 305.2331 15.50613331151052"},{"id":"58273","name":"FLOCK 4Q 11","type":"PAYLOAD","l1":"1 58273U 23174T   26203.90420155  .00025970  00000-0  44572-3 0  9999","l2":"2 58273  97.3845 293.5213 0005775  47.5543 312.6197 15.51137642151124"},{"id":"58280","name":"FLOCK 4Q 28","type":"PAYLOAD","l1":"1 58280U 23174AA  26203.22080910  .00035376  00000-0  48880-3 0  9990","l2":"2 58280  97.3871 295.6222 0004183  41.0014 319.1555 15.57072229151190"},{"id":"58282","name":"FLOCK 4Q 27","type":"PAYLOAD","l1":"1 58282U 23174AC  26203.22167875  .00034355  00000-0  47114-3 0  9993","l2":"2 58282  97.3800 295.0248 0003360  46.1334 314.0198 15.57284095151208"},{"id":"58318","name":"FLOCK 4Q 7","type":"PAYLOAD","l1":"1 58318U 23174BQ  26203.68765311  .00035052  00000-0  47239-3 0  9995","l2":"2 58318  97.3900 296.4414 0004038  11.8986 348.2365 15.57746254151276"},{"id":"58320","name":"FLOCK 4Q 2","type":"PAYLOAD","l1":"1 58320U 23174BS  26203.95373189  .00028475  00000-0  48898-3 0  9999","l2":"2 58320  97.3838 293.2822 0004009  24.2012 335.9427 15.51113736151148"},{"id":"58322","name":"FLOCK 4Q 9","type":"PAYLOAD","l1":"1 58322U 23174BU  26203.90326863  .00032223  00000-0  54197-3 0  9998","l2":"2 58322  97.3844 293.3497 0004867  22.7910 337.3557 15.51670604151128"},{"id":"58327","name":"FLOCK 4Q 4","type":"PAYLOAD","l1":"1 58327U 23174BZ  26203.21494304  .00026449  00000-0  47092-3 0  9992","l2":"2 58327  97.3820 291.7391 0005189  54.7759 305.3978 15.50096855150980"},{"id":"58328","name":"FLOCK 4Q 13","type":"PAYLOAD","l1":"1 58328U 23174CA  26203.89504067  .00024998  00000-0  39942-3 0  9997","l2":"2 58328  97.3997 295.7946 0005160  30.7958 329.3597 15.53153575151216"},{"id":"60480","name":"FLOCK 4BE 18","type":"PAYLOAD","l1":"1 60480U 24149N   26203.50310308  .00018720  00000-0  42761-3 0  9992","l2":"2 60480  97.3716 287.6274 0005440 125.4335 234.7421 15.42891594107756"},{"id":"60481","name":"FLOCK 4BE 7","type":"PAYLOAD","l1":"1 60481U 24149P   26203.47714574  .00027617  00000-0  65443-3 0  9999","l2":"2 60481  97.3743 286.8807 0004491 130.5541 229.6098 15.41714937107680"},{"id":"60486","name":"FLOCK 4BE 36","type":"PAYLOAD","l1":"1 60486U 24149U   26203.19638806  .00019079  00000-0  42403-3 0  9990","l2":"2 60486  97.3731 288.0675 0005164 133.4141 226.7538 15.43708231107752"},{"id":"60487","name":"FLOCK 4BE 25","type":"PAYLOAD","l1":"1 60487U 24149V   26203.19199815  .00015480  00000-0  39379-3 0  9993","l2":"2 60487  97.3783 286.5994 0004070 127.8082 232.3533 15.39679253107623"},{"id":"60488","name":"FLOCK 4BE 31","type":"PAYLOAD","l1":"1 60488U 24149W   26203.84032732  .00024616  00000-0  51607-3 0  9999","l2":"2 60488  97.3787 289.6875 0004058 131.3977 228.7621 15.45389199107888"},{"id":"60489","name":"FLOCK 4BE 20","type":"PAYLOAD","l1":"1 60489U 24149X   26203.17246978  .00013801  00000-0  35993-3 0  9999","l2":"2 60489  97.3682 285.3707 0005457 134.1319 226.0376 15.38936499107594"},{"id":"60490","name":"FLOCK 4BE 23","type":"PAYLOAD","l1":"1 60490U 24149Y   26203.17237580  .00014318  00000-0  37872-3 0  9992","l2":"2 60490  97.3764 285.7643 0005100 138.0155 222.1482 15.38494329107570"}]}